CCSDS_OMM_VERS = 2.0
CREATION_DATE  = 
ORIGINATOR     = 

OBJECT_NAME    = SL-16 R/B
OBJECT_ID      = 1993-016B
CENTER_NAME    = EARTH
REF_FRAME      = TEME
TIME_SYSTEM    = UTC
MEAN_ELEMENT_THEORY = SGP/SGP4

EPOCH          = 2026-01-04T16:12:40.846464
MEAN_MOTION    = 14.15296600
ECCENTRICITY   = .0008137
INCLINATION    = 71.0090
RA_OF_ASC_NODE = 349.6307
ARG_OF_PERICENTER = 51.3164
MEAN_ANOMALY   = 308.8685

EPHEMERIS_TYPE = 0
CLASSIFICATION_TYPE = U
NORAD_CAT_ID   = 22566
ELEMENT_SET_NO = 999
REV_AT_EPOCH   = 69311
BSTAR          = .1175E-5
MEAN_MOTION_DOT = -.45E-6
MEAN_MOTION_DDOT = 0

CCSDS_OMM_VERS = 2.0
CREATION_DATE  = 
ORIGINATOR     = 

OBJECT_NAME    = COSMOS 2242
OBJECT_ID      = 1993-024A
CENTER_NAME    = EARTH
REF_FRAME      = TEME
TIME_SYSTEM    = UTC
MEAN_ELEMENT_THEORY = SGP/SGP4

EPOCH          = 2026-01-04T20:13:56.591904
MEAN_MOTION    = 14.96230255
ECCENTRICITY   = .0016988
INCLINATION    = 82.5204
RA_OF_ASC_NODE = 327.7604
ARG_OF_PERICENTER = 154.2860
MEAN_ANOMALY   = 205.9211

EPHEMERIS_TYPE = 0
CLASSIFICATION_TYPE = U
NORAD_CAT_ID   = 22626
ELEMENT_SET_NO = 999
REV_AT_EPOCH   = 77084
BSTAR          = .30908E-3
MEAN_MOTION_DOT = .3521E-4
MEAN_MOTION_DDOT = 0

CCSDS_OMM_VERS = 2.0
CREATION_DATE  = 
ORIGINATOR     = 

OBJECT_NAME    = SL-16 R/B
OBJECT_ID      = 1993-059B
CENTER_NAME    = EARTH
REF_FRAME      = TEME
TIME_SYSTEM    = UTC
MEAN_ELEMENT_THEORY = SGP/SGP4

EPOCH          = 2026-01-04T19:29:51.703872
MEAN_MOTION    = 14.17219151
ECCENTRICITY   = .0019218
INCLINATION    = 70.9901
RA_OF_ASC_NODE = 145.8325
ARG_OF_PERICENTER = 303.0749
MEAN_ANOMALY   = 56.8529

EPHEMERIS_TYPE = 0
CLASSIFICATION_TYPE = U
NORAD_CAT_ID   = 22803
ELEMENT_SET_NO = 999
REV_AT_EPOCH   = 67048
BSTAR          = -.41785E-4
MEAN_MOTION_DOT = -.133E-5
MEAN_MOTION_DDOT = 0

CCSDS_OMM_VERS = 2.0
CREATION_DATE  = 
ORIGINATOR     = 

OBJECT_NAME    = ARIANE 40 R/B
OBJECT_ID      = 1993-061H
CENTER_NAME    = EARTH
REF_FRAME      = TEME
TIME_SYSTEM    = UTC
MEAN_ELEMENT_THEORY = SGP/SGP4

EPOCH          = 2026-01-04T19:16:05.751840
MEAN_MOTION    = 14.32819939
ECCENTRICITY   = .001172
INCLINATION    = 98.5041
RA_OF_ASC_NODE = 74.9096
ARG_OF_PERICENTER = 112.0326
MEAN_ANOMALY   = 248.2104

EPHEMERIS_TYPE = 0
CLASSIFICATION_TYPE = U
NORAD_CAT_ID   = 22830
ELEMENT_SET_NO = 999
REV_AT_EPOCH   = 68495
BSTAR          = .19059E-3
MEAN_MOTION_DOT = .477E-5
MEAN_MOTION_DDOT = 0

CCSDS_OMM_VERS = 2.0
CREATION_DATE  = 
ORIGINATOR     = 

OBJECT_NAME    = COSMOS 2278
OBJECT_ID      = 1994-023A
CENTER_NAME    = EARTH
REF_FRAME      = TEME
TIME_SYSTEM    = UTC
MEAN_ELEMENT_THEORY = SGP/SGP4

EPOCH          = 2026-01-04T14:12:53.379936
MEAN_MOTION    = 14.14356197
ECCENTRICITY   = .0007302
INCLINATION    = 71.0546
RA_OF_ASC_NODE = 309.1988
ARG_OF_PERICENTER = 137.9388
MEAN_ANOMALY   = 222.2297

EPHEMERIS_TYPE = 0
CLASSIFICATION_TYPE = U
NORAD_CAT_ID   = 23087
ELEMENT_SET_NO = 999
REV_AT_EPOCH   = 63574
BSTAR          = .2708E-3
MEAN_MOTION_DOT = .471E-5
MEAN_MOTION_DDOT = 0

CCSDS_OMM_VERS = 2.0
CREATION_DATE  = 
ORIGINATOR     = 

OBJECT_NAME    = SL-16 R/B
OBJECT_ID      = 1994-023B
CENTER_NAME    = EARTH
REF_FRAME      = TEME
TIME_SYSTEM    = UTC
MEAN_ELEMENT_THEORY = SGP/SGP4

EPOCH          = 2026-01-04T19:25:19.039296
MEAN_MOTION    = 14.14999892
ECCENTRICITY   = .0002642
INCLINATION    = 70.9982
RA_OF_ASC_NODE = 205.0402
ARG_OF_PERICENTER = 353.1364
MEAN_ANOMALY   = 6.9722

EPHEMERIS_TYPE = 0
CLASSIFICATION_TYPE = U
NORAD_CAT_ID   = 23088
ELEMENT_SET_NO = 999
REV_AT_EPOCH   = 63705
BSTAR          = .15092E-3
MEAN_MOTION_DOT = .245E-5
MEAN_MOTION_DDOT = 0

CCSDS_OMM_VERS = 2.0
CREATION_DATE  = 
ORIGINATOR     = 

OBJECT_NAME    = SL-16 R/B
OBJECT_ID      = 1994-074B
CENTER_NAME    = EARTH
REF_FRAME      = TEME
TIME_SYSTEM    = UTC
MEAN_ELEMENT_THEORY = SGP/SGP4

EPOCH          = 2026-01-04T16:22:50.608416
MEAN_MOTION    = 14.79321828
ECCENTRICITY   = .0007959
INCLINATION    = 97.7178
RA_OF_ASC_NODE = 38.0726
ARG_OF_PERICENTER = 73.4801
MEAN_ANOMALY   = 39.9804

EPHEMERIS_TYPE = 0
CLASSIFICATION_TYPE = U
NORAD_CAT_ID   = 23343
ELEMENT_SET_NO = 999
REV_AT_EPOCH   = 67778
BSTAR          = .11687E-3
MEAN_MOTION_DOT = .821E-5
MEAN_MOTION_DDOT = 0

CCSDS_OMM_VERS = 2.0
CREATION_DATE  = 
ORIGINATOR     = 

OBJECT_NAME    = SL-16 R/B
OBJECT_ID      = 1994-077B
CENTER_NAME    = EARTH
REF_FRAME      = TEME
TIME_SYSTEM    = UTC
MEAN_ELEMENT_THEORY = SGP/SGP4

EPOCH          = 2026-01-04T17:52:57.620640
MEAN_MOTION    = 14.15550072
ECCENTRICITY   = .000493
INCLINATION    = 70.9828
RA_OF_ASC_NODE = 127.0174
ARG_OF_PERICENTER = 265.2932
MEAN_ANOMALY   = 94.7628

EPHEMERIS_TYPE = 0
CLASSIFICATION_TYPE = U
NORAD_CAT_ID   = 23405
ELEMENT_SET_NO = 999
REV_AT_EPOCH   = 60718
BSTAR          = .39976E-5
MEAN_MOTION_DOT = -.4E-6
MEAN_MOTION_DDOT = 0

CCSDS_OMM_VERS = 2.0
CREATION_DATE  = 
ORIGINATOR     = 

OBJECT_NAME    = ARIANE 40+ R/B
OBJECT_ID      = 1995-021B
CENTER_NAME    = EARTH
REF_FRAME      = TEME
TIME_SYSTEM    = UTC
MEAN_ELEMENT_THEORY = SGP/SGP4

EPOCH          = 2026-01-04T19:41:06.346176
MEAN_MOTION    = 14.39717013
ECCENTRICITY   = .0006257
INCLINATION    = 98.4619
RA_OF_ASC_NODE = 77.1275
ARG_OF_PERICENTER = 341.9493
MEAN_ANOMALY   = 131.0573

EPHEMERIS_TYPE = 0
CLASSIFICATION_TYPE = U
NORAD_CAT_ID   = 23561
ELEMENT_SET_NO = 999
REV_AT_EPOCH   = 61005
BSTAR          = .18116E-3
MEAN_MOTION_DOT = .524E-5
MEAN_MOTION_DDOT = 0

CCSDS_OMM_VERS = 2.0
CREATION_DATE  = 
ORIGINATOR     = 

OBJECT_NAME    = SL-16 R/B
OBJECT_ID      = 1995-058B
CENTER_NAME    = EARTH
REF_FRAME      = TEME
TIME_SYSTEM    = UTC
MEAN_ELEMENT_THEORY = SGP/SGP4

EPOCH          = 2026-01-04T19:40:15.625920
MEAN_MOTION    = 14.15485340
ECCENTRICITY   = .0014139
INCLINATION    = 71.0227
RA_OF_ASC_NODE = 314.3480
ARG_OF_PERICENTER = 224.2132
MEAN_ANOMALY   = 135.7862

EPHEMERIS_TYPE = 0
CLASSIFICATION_TYPE = U
NORAD_CAT_ID   = 23705
ELEMENT_SET_NO = 999
REV_AT_EPOCH   = 55881
BSTAR          = .20458E-3
MEAN_MOTION_DOT = .353E-5
MEAN_MOTION_DDOT = 0

CCSDS_OMM_VERS = 2.0
CREATION_DATE  = 
ORIGINATOR     = 

OBJECT_NAME    = SL-16 R/B
OBJECT_ID      = 1996-051B
CENTER_NAME    = EARTH
REF_FRAME      = TEME
TIME_SYSTEM    = UTC
MEAN_ELEMENT_THEORY = SGP/SGP4

EPOCH          = 2026-01-04T20:38:16.560096
MEAN_MOTION    = 14.12399523
ECCENTRICITY   = .0019349
INCLINATION    = 70.7599
RA_OF_ASC_NODE = 310.3450
ARG_OF_PERICENTER = 233.0218
MEAN_ANOMALY   = 126.9131

EPHEMERIS_TYPE = 0
CLASSIFICATION_TYPE = U
NORAD_CAT_ID   = 24298
ELEMENT_SET_NO = 999
REV_AT_EPOCH   = 51263
BSTAR          = .50448E-4
MEAN_MOTION_DOT = .44E-6
MEAN_MOTION_DDOT = 0

CCSDS_OMM_VERS = 2.0
CREATION_DATE  = 
ORIGINATOR     = 

OBJECT_NAME    = ORBVIEW 2 (SEASTAR)
OBJECT_ID      = 1997-037A
CENTER_NAME    = EARTH
REF_FRAME      = TEME
TIME_SYSTEM    = UTC
MEAN_ELEMENT_THEORY = SGP/SGP4

EPOCH          = 2026-01-04T10:19:24.852000
MEAN_MOTION    = 14.35437706
ECCENTRICITY   = .00014066
INCLINATION    = 98.8472
RA_OF_ASC_NODE = 167.0782
ARG_OF_PERICENTER = 233.6007
MEAN_ANOMALY   = 126.5048

EPHEMERIS_TYPE = 0
CLASSIFICATION_TYPE = U
NORAD_CAT_ID   = 24883
ELEMENT_SET_NO = 999
REV_AT_EPOCH   = 49925
BSTAR          = .18960938E-3
MEAN_MOTION_DOT = .498E-5
MEAN_MOTION_DDOT = 0

