SL-16 R/B               
1 22566U 93016B   26004.67547276 -.00000045  00000+0  11750-5 0  9994
2 22566  71.0090 349.6307 0008137  51.3164 308.8685 14.15296600693113
COSMOS 2242             
1 22626U 93024A   26004.84301611  .00003521  00000+0  30908-3 0  9995
2 22626  82.5204 327.7604 0016988 154.2860 205.9211 14.96230255770841
SL-16 R/B               
1 22803U 93059B   26004.81240398 -.00000133  00000+0 -41785-4 0  9995
2 22803  70.9901 145.8325 0019218 303.0749  56.8529 14.17219151670480
ARIANE 40 R/B           
1 22830U 93061H   26004.80284435  .00000477  00000+0  19059-3 0  9994
2 22830  98.5041  74.9096 0011720 112.0326 248.2104 14.32819939684957
COSMOS 2278             
1 23087U 94023A   26004.59228449  .00000471  00000+0  27080-3 0  9994
2 23087  71.0546 309.1988 0007302 137.9388 222.2297 14.14356197635746
SL-16 R/B               
1 23088U 94023B   26004.80924814  .00000245  00000+0  15092-3 0  9997
2 23088  70.9982 205.0402 0002642 353.1364   6.9722 14.14999892637053
SL-16 R/B               
1 23343U 94074B   26004.68253019  .00000821  00000+0  11687-3 0  9991
2 23343  97.7178  38.0726 0007959  73.4801  39.9804 14.79321828677788
SL-16 R/B               
1 23405U 94077B   26004.74511135 -.00000040  00000+0  39976-5 0  9993
2 23405  70.9828 127.0174 0004930 265.2932  94.7628 14.15550072607185
ARIANE 40+ R/B          
1 23561U 95021B   26004.82021234  .00000524  00000+0  18116-3 0  9998
2 23561  98.4619  77.1275 0006257 341.9493 131.0573 14.39717013610056
SL-16 R/B               
1 23705U 95058B   26004.81962530  .00000353  00000+0  20458-3 0  9992
2 23705  71.0227 314.3480 0014139 224.2132 135.7862 14.15485340558819
SL-16 R/B               
1 24298U 96051B   26004.85991389  .00000044  00000+0  50448-4 0  9992
2 24298  70.7599 310.3450 0019349 233.0218 126.9131 14.12399523512634
ORBVIEW 2 (SEASTAR)     
1 24883U 97037A   26004.43014875  .00000498  00000+0  18961-3 0  9993
2 24883  98.8472 167.0782 0001406 233.6007 126.5048 14.35437706499253
